{
    "links": {
        "self": "http://www.neowsapp.com/rest/v1/neo/3441844?api_key=iIulBulltgU6a56xZRHN4H3l9WmuAYTsLGpBGhQ2"
    },
    "id": "3441844",
    "neo_reference_id": "3441844",
    "name": "(2008 YL2)",
    "designation": "2008 YL2",
    "nasa_jpl_url": "http://ssd.jpl.nasa.gov/sbdb.cgi?sstr=3441844",
    "absolute_magnitude_h": 24.5,
    "estimated_diameter": {
        "kilometers": {
            "estimated_diameter_min": 0.0334622374,
            "estimated_diameter_max": 0.0748238376
        },
        "meters": {
            "estimated_diameter_min": 33.4622374455,
            "estimated_diameter_max": 74.8238376074
        },
        "miles": {
            "estimated_diameter_min": 0.0207924639,
            "estimated_diameter_max": 0.0464933628
        },
        "feet": {
            "estimated_diameter_min": 109.7842471007,
            "estimated_diameter_max": 245.4850393757
        }
    },
    "is_potentially_hazardous_asteroid": false,
    "close_approach_data": [
        {
            "close_approach_date": "2006-12-15",
            "close_approach_date_full": "2006-Dec-15 12:44",
            "epoch_date_close_approach": 1166186640000,
            "relative_velocity": {
                "kilometers_per_second": "17.9711354093",
                "kilometers_per_hour": "64696.0874735675",
                "miles_per_hour": "40199.6327971175"
            },
            "miss_distance": {
                "astronomical": "0.0644412496",
                "lunar": "25.0676460944",
                "kilometers": "9640273.680298352",
                "miles": "5990188.2962151776"
            },
            "orbiting_body": "Earth"
        },
        {
            "close_approach_date": "2008-12-19",
            "close_approach_date_full": "2008-Dec-19 13:49",
            "epoch_date_close_approach": 1229694540000,
            "relative_velocity": {
                "kilometers_per_second": "19.9504355562",
                "kilometers_per_hour": "71821.5680023672",
                "miles_per_hour": "44627.1292956931"
            },
            "miss_distance": {
                "astronomical": "0.0262296745",
                "lunar": "10.2033433805",
                "kilometers": "3923903.435993315",
                "miles": "2438200.534265147"
            },
            "orbiting_body": "Earth"
        },
        {
            "close_approach_date": "2010-12-25",
            "close_approach_date_full": "2010-Dec-25 11:35",
            "epoch_date_close_approach": 1293276900000,
            "relative_velocity": {
                "kilometers_per_second": "22.6229051426",
                "kilometers_per_hour": "81442.4585132513",
                "miles_per_hour": "50605.1765134144"
            },
            "miss_distance": {
                "astronomical": "0.1326157019",
                "lunar": "51.5875080391",
                "kilometers": "19839026.532794953",
                "miles": "12327399.4583702314"
            },
            "orbiting_body": "Earth"
        }
    ],
    "orbital_data": {
        "orbit_id": "7",
        "orbit_determination_date": "2017-04-06 09:01:54",
        "first_observation_date": "2008-12-21",
        "last_observation_date": "2008-12-22",
        "data_arc_in_days": 1,
        "observations_used": 57,
        "orbit_uncertainty": "8",
        "minimum_orbit_intersection": ".0119494",
        "jupiter_tisserand_invariant": "4.116",
        "epoch_osculation": "2454822.5",
        "eccentricity": ".5420057219586987",
        "semi_major_axis": "1.596580783613785",
        "inclination": "23.01464349378656",
        "ascending_node_longitude": "267.9530914883612",
        "orbital_period": "736.8596468228878",
        "perihelion_distance": ".7312248633258107",
        "perihelion_argument": "103.2973165556163",
        "aphelion_distance": "2.46193670390176",
        "perihelion_time": "2454772.243806449121",
        "mean_anomaly": "24.55315575540684",
        "mean_motion": ".4885597977202433",
        "equinox": "J2000",
        "orbit_class": {
            "orbit_class_type": "APO",
            "orbit_class_description": "Near-Earth asteroid orbits which cross the Earth’s orbit similar to that of 1862 Apollo",
            "orbit_class_range": "a (semi-major axis) > 1.0 AU; q (perihelion) < 1.017 AU"
        }
    },
    "is_sentry_object": false
}